IRIDIUM 152             
1 43479U 18047D   26073.84456344  .00000136  00000+0  41584-4 0  9998
2 43479  86.3964 127.7895 0002225  91.3508 268.7943 14.34217620408967
IRIDIUM 147             
1 43480U 18047E   26073.85090602  .00000145  00000+0  44814-4 0  9991
2 43480  86.3965 127.7904 0002293  98.2360 261.9096 14.34217837408962
IRIDIUM 110             
1 43481U 18047F   26073.85724909  .00000009  00000+0 -37141-5 0  9992
2 43481  86.3971 127.8768 0002286  84.9049 275.2408 14.34217526408956
IRIDIUM 162             
1 43482U 18047G   26073.87276430  .00000352  00000+0  98620-4 0  9994
2 43482  86.4487 127.8095 0002152  95.0692 265.0755 14.43278833411529
IRIDIUM 160             
1 43569U 18061A   26073.80308465  .00000071  00000+0  18171-4 0  9994
2 43569  86.3910  96.2757 0002320  89.9625 270.1837 14.34217779399844
IRIDIUM 166             
1 43570U 18061B   26073.75868628  .00000052  00000+0  11477-4 0  9993
2 43570  86.3910  96.2461 0002266  95.2551 264.8904 14.34217687399860
IRIDIUM 158             
1 43571U 18061C   26073.79674206  .00000078  00000+0  20890-4 0  9992
2 43571  86.3909  96.2401 0002082  90.1235 270.0199 14.34217548399830
IRIDIUM 165             
1 43572U 18061D   26073.82211204  .00000057  00000+0  13111-4 0  9997
2 43572  86.3910  96.2742 0002252  95.6703 264.4750 14.34217594399864
IRIDIUM 155             
1 43573U 18061E   26073.78405632  .00000058  00000+0  13489-4 0  9992
2 43573  86.3907  96.1636 0002078  94.0908 266.0526 14.34217733399828
IRIDIUM 154             
1 43574U 18061F   26073.76502938 -.00000109  00000+0 -46136-4 0  9992
2 43574  86.3915  96.3006 0002195  96.4735 263.6711 14.34217222399872
IRIDIUM 163             
1 43575U 18061G   26073.81576889  .00000012  00000+0 -26424-5 0  9996
2 43575  86.3910  96.1974 0002068  90.9669 269.1764 14.34217464399859
IRIDIUM 156             
1 43576U 18061H   26073.79039867  .00000057  00000+0  13463-4 0  9990
2 43576  86.3909  96.2154 0002089  95.2289 264.9145 14.34217654399844
IRIDIUM 164             
1 43577U 18061J   26073.56206408  .00000110  00000+0  32189-4 0  9999
2 43577  86.3914  96.3501 0002401  94.5167 265.6303 14.34218613399854
IRIDIUM 159             
1 43578U 18061K   26073.66989027 -.00000026  00000+0 -16425-4 0  9999
2 43578  86.3909  96.2432 0002241  89.6797 270.4656 14.34217129399831
IRIDIUM 180             
1 43922U 19002A   26073.94846016  .00000073  00000+0  18928-4 0  9999
2 43922  86.3982  32.9670 0002248  84.4736 275.6717 14.34217993375488
IRIDIUM 176             
1 43923U 19002B   26073.88779329  .00000580  00000+0  88063-4 0  9995
2 43923  86.6106  32.9486 0002467  90.7982 269.3518 14.72250563385371
IRIDIUM 168             
1 43924U 19002C   26073.94211697  .00000289  00000+0  96172-4 0  9998
2 43924  86.3985  33.0441 0002148  86.4807 273.6635 14.34219652375460
