[{"OBJECT_NAME":"IRIDIUM 152","OBJECT_ID":"2018-047D","EPOCH":"2026-03-14T20:16:10.281216","MEAN_MOTION":14.3421762,"ECCENTRICITY":0.00022253,"INCLINATION":86.3964,"RA_OF_ASC_NODE":127.7895,"ARG_OF_PERICENTER":91.3508,"MEAN_ANOMALY":268.7943,"EPHEMERIS_TYPE":0,"CLASSIFICATION_TYPE":"U","NORAD_CAT_ID":43479,"ELEMENT_SET_NO":999,"REV_AT_EPOCH":40896,"BSTAR":4.1584236e-5,"MEAN_MOTION_DOT":1.36e-6,"MEAN_MOTION_DDOT":0},{"OBJECT_NAME":"IRIDIUM 147","OBJECT_ID":"2018-047E","EPOCH":"2026-03-14T20:25:18.280128","MEAN_MOTION":14.34217837,"ECCENTRICITY":0.00022938,"INCLINATION":86.3965,"RA_OF_ASC_NODE":127.7904,"ARG_OF_PERICENTER":98.236,"MEAN_ANOMALY":261.9096,"EPHEMERIS_TYPE":0,"CLASSIFICATION_TYPE":"U","NORAD_CAT_ID":43480,"ELEMENT_SET_NO":999,"REV_AT_EPOCH":40896,"BSTAR":4.4813769e-5,"MEAN_MOTION_DOT":1.45e-6,"MEAN_MOTION_DDOT":0},{"OBJECT_NAME":"IRIDIUM 110","OBJECT_ID":"2018-047F","EPOCH":"2026-03-14T20:34:26.321376","MEAN_MOTION":14.34217526,"ECCENTRICITY":0.00022866,"INCLINATION":86.3971,"RA_OF_ASC_NODE":127.8768,"ARG_OF_PERICENTER":84.9049,"MEAN_ANOMALY":275.2408,"EPHEMERIS_TYPE":0,"CLASSIFICATION_TYPE":"U","NORAD_CAT_ID":43481,"ELEMENT_SET_NO":999,"REV_AT_EPOCH":40895,"BSTAR":-3.71413e-6,"MEAN_MOTION_DOT":9.0e-8,"MEAN_MOTION_DDOT":0},{"OBJECT_NAME":"IRIDIUM 162","OBJECT_ID":"2018-047G","EPOCH":"2026-03-14T20:56:46.835520","MEAN_MOTION":14.43278833,"ECCENTRICITY":0.0002152,"INCLINATION":86.4487,"RA_OF_ASC_NODE":127.8095,"ARG_OF_PERICENTER":95.0692,"MEAN_ANOMALY":265.0755,"EPHEMERIS_TYPE":0,"CLASSIFICATION_TYPE":"U","NORAD_CAT_ID":43482,"ELEMENT_SET_NO":999,"REV_AT_EPOCH":41152,"BSTAR":9.862046e-5,"MEAN_MOTION_DOT":3.52e-6,"MEAN_MOTION_DDOT":0},{"OBJECT_NAME":"IRIDIUM 160","OBJECT_ID":"2018-061A","EPOCH":"2026-03-14T19:16:26.513760","MEAN_MOTION":14.34217779,"ECCENTRICITY":0.00023205,"INCLINATION":86.391,"RA_OF_ASC_NODE":96.2757,"ARG_OF_PERICENTER":89.9625,"MEAN_ANOMALY":270.1837,"EPHEMERIS_TYPE":0,"CLASSIFICATION_TYPE":"U","NORAD_CAT_ID":43569,"ELEMENT_SET_NO":999,"REV_AT_EPOCH":39984,"BSTAR":1.8171321e-5,"MEAN_MOTION_DOT":7.1e-7,"MEAN_MOTION_DDOT":0},{"OBJECT_NAME":"IRIDIUM 166","OBJECT_ID":"2018-061B","EPOCH":"2026-03-14T18:12:30.494592","MEAN_MOTION":14.34217687,"ECCENTRICITY":0.00022665,"INCLINATION":86.391,"RA_OF_ASC_NODE":96.2461,"ARG_OF_PERICENTER":95.2551,"MEAN_ANOMALY":264.8904,"EPHEMERIS_TYPE":0,"CLASSIFICATION_TYPE":"U","NORAD_CAT_ID":43570,"ELEMENT_SET_NO":999,"REV_AT_EPOCH":39986,"BSTAR":1.1477021e-5,"MEAN_MOTION_DOT":5.2e-7,"MEAN_MOTION_DDOT":0},{"OBJECT_NAME":"IRIDIUM 158","OBJECT_ID":"2018-061C","EPOCH":"2026-03-14T19:07:18.513984","MEAN_MOTION":14.34217548,"ECCENTRICITY":0.0002082,"INCLINATION":86.3909,"RA_OF_ASC_NODE":96.2401,"ARG_OF_PERICENTER":90.1235,"MEAN_ANOMALY":270.0199,"EPHEMERIS_TYPE":0,"CLASSIFICATION_TYPE":"U","NORAD_CAT_ID":43571,"ELEMENT_SET_NO":999,"REV_AT_EPOCH":39983,"BSTAR":2.0889612e-5,"MEAN_MOTION_DOT":7.8e-7,"MEAN_MOTION_DDOT":0},{"OBJECT_NAME":"IRIDIUM 165","OBJECT_ID":"2018-061D","EPOCH":"2026-03-14T19:43:50.480256","MEAN_MOTION":14.34217594,"ECCENTRICITY":0.00022524,"INCLINATION":86.391,"RA_OF_ASC_NODE":96.2742,"ARG_OF_PERICENTER":95.6703,"MEAN_ANOMALY":264.475,"EPHEMERIS_TYPE":0,"CLASSIFICATION_TYPE":"U","NORAD_CAT_ID":43572,"ELEMENT_SET_NO":999,"REV_AT_EPOCH":39986,"BSTAR":1.3111344e-5,"MEAN_MOTION_DOT":5.7e-7,"MEAN_MOTION_DDOT":0},{"OBJECT_NAME":"IRIDIUM 155","OBJECT_ID":"2018-061E","EPOCH":"2026-03-14T18:49:02.466048","MEAN_MOTION":14.34217733,"ECCENTRICITY":0.00020787,"INCLINATION":86.3907,"RA_OF_ASC_NODE":96.1636,"ARG_OF_PERICENTER":94.0908,"MEAN_ANOMALY":266.0526,"EPHEMERIS_TYPE":0,"CLASSIFICATION_TYPE":"U","NORAD_CAT_ID":43573,"ELEMENT_SET_NO":999,"REV_AT_EPOCH":39982,"BSTAR":1.3488748e-5,"MEAN_MOTION_DOT":5.8e-7,"MEAN_MOTION_DDOT":0},{"OBJECT_NAME":"IRIDIUM 154","OBJECT_ID":"2018-061F","EPOCH":"2026-03-14T18:21:38.538432","MEAN_MOTION":14.34217222,"ECCENTRICITY":0.00021954,"INCLINATION":86.3915,"RA_OF_ASC_NODE":96.3006,"ARG_OF_PERICENTER":96.4735,"MEAN_ANOMALY":263.6711,"EPHEMERIS_TYPE":0,"CLASSIFICATION_TYPE":"U","NORAD_CAT_ID":43574,"ELEMENT_SET_NO":999,"REV_AT_EPOCH":39987,"BSTAR":-4.6136032e-5,"MEAN_MOTION_DOT":-1.09e-6,"MEAN_MOTION_DDOT":0},{"OBJECT_NAME":"IRIDIUM 163","OBJECT_ID":"2018-061G","EPOCH":"2026-03-14T19:34:42.432096","MEAN_MOTION":14.34217464,"ECCENTRICITY":0.00020684,"INCLINATION":86.391,"RA_OF_ASC_NODE":96.1974,"ARG_OF_PERICENTER":90.9669,"MEAN_ANOMALY":269.1764,"EPHEMERIS_TYPE":0,"CLASSIFICATION_TYPE":"U","NORAD_CAT_ID":43575,"ELEMENT_SET_NO":999,"REV_AT_EPOCH":39985,"BSTAR":-2.642421e-6,"MEAN_MOTION_DOT":1.2e-7,"MEAN_MOTION_DDOT":0},{"OBJECT_NAME":"IRIDIUM 156","OBJECT_ID":"2018-061H","EPOCH":"2026-03-14T18:58:10.445088","MEAN_MOTION":14.34217654,"ECCENTRICITY":0.00020892,"INCLINATION":86.3909,"RA_OF_ASC_NODE":96.2154,"ARG_OF_PERICENTER":95.2289,"MEAN_ANOMALY":264.9145,"EPHEMERIS_TYPE":0,"CLASSIFICATION_TYPE":"U","NORAD_CAT_ID":43576,"ELEMENT_SET_NO":999,"REV_AT_EPOCH":39984,"BSTAR":1.3463266e-5,"MEAN_MOTION_DOT":5.7e-7,"MEAN_MOTION_DDOT":0},{"OBJECT_NAME":"IRIDIUM 164","OBJECT_ID":"2018-061J","EPOCH":"2026-03-14T13:29:22.336512","MEAN_MOTION":14.34218613,"ECCENTRICITY":0.00024019,"INCLINATION":86.3914,"RA_OF_ASC_NODE":96.3501,"ARG_OF_PERICENTER":94.5167,"MEAN_ANOMALY":265.6303,"EPHEMERIS_TYPE":0,"CLASSIFICATION_TYPE":"U","NORAD_CAT_ID":43577,"ELEMENT_SET_NO":999,"REV_AT_EPOCH":39985,"BSTAR":3.2189193e-5,"MEAN_MOTION_DOT":1.1e-6,"MEAN_MOTION_DDOT":0},{"OBJECT_NAME":"IRIDIUM 159","OBJECT_ID":"2018-061K","EPOCH":"2026-03-14T16:04:38.519328","MEAN_MOTION":14.34217129,"ECCENTRICITY":0.00022416,"INCLINATION":86.3909,"RA_OF_ASC_NODE":96.2432,"ARG_OF_PERICENTER":89.6797,"MEAN_ANOMALY":270.4656,"EPHEMERIS_TYPE":0,"CLASSIFICATION_TYPE":"U","NORAD_CAT_ID":43578,"ELEMENT_SET_NO":999,"REV_AT_EPOCH":39983,"BSTAR":-1.6424985e-5,"MEAN_MOTION_DOT":-2.6e-7,"MEAN_MOTION_DDOT":0},{"OBJECT_NAME":"IRIDIUM 180","OBJECT_ID":"2019-002A","EPOCH":"2026-03-14T22:45:46.957824","MEAN_MOTION":14.34217993,"ECCENTRICITY":0.00022485,"INCLINATION":86.3982,"RA_OF_ASC_NODE":32.967,"ARG_OF_PERICENTER":84.4736,"MEAN_ANOMALY":275.6717,"EPHEMERIS_TYPE":0,"CLASSIFICATION_TYPE":"U","NORAD_CAT_ID":43922,"ELEMENT_SET_NO":999,"REV_AT_EPOCH":37548,"BSTAR":1.8928464e-5,"MEAN_MOTION_DOT":7.3e-7,"MEAN_MOTION_DDOT":0},{"OBJECT_NAME":"IRIDIUM 176","OBJECT_ID":"2019-002B","EPOCH":"2026-03-14T21:18:25.340256","MEAN_MOTION":14.72250563,"ECCENTRICITY":0.00024678,"INCLINATION":86.6106,"RA_OF_ASC_NODE":32.9486,"ARG_OF_PERICENTER":90.7982,"MEAN_ANOMALY":269.3518,"EPHEMERIS_TYPE":0,"CLASSIFICATION_TYPE":"U","NORAD_CAT_ID":43923,"ELEMENT_SET_NO":999,"REV_AT_EPOCH":38537,"BSTAR":8.8062886e-5,"MEAN_MOTION_DOT":5.8e-6,"MEAN_MOTION_DDOT":0},{"OBJECT_NAME":"IRIDIUM 168","OBJECT_ID":"2019-002C","EPOCH":"2026-03-14T22:36:38.906208","MEAN_MOTION":14.34219652,"ECCENTRICITY":0.00021481,"INCLINATION":86.3985,"RA_OF_ASC_NODE":33.0441,"ARG_OF_PERICENTER":86.4807,"MEAN_ANOMALY":273.6635,"EPHEMERIS_TYPE":0,"CLASSIFICATION_TYPE":"U","NORAD_CAT_ID":43924,"ELEMENT_SET_NO":999,"REV_AT_EPOCH":37546,"BSTAR":9.617194e-5,"MEAN_MOTION_DOT":2.89e-6,"MEAN_MOTION_DDOT":0}]
